start=new Date('2022-04-15T00:00:00.000Z').valueOf();
sats=[{"MEAN_MOTION":"15.06418855","OBJECT_NAME":"STARLINK-1638","RA_OF_ASC_NODE":"192.5526","OBJECT_ID":"2020-057T","MEAN_ANOMALY":"294.4044","MEAN_MOTION_DDOT":"0.0000000000000","NORAD_CAT_ID":"46134","INCLINATION":"53.0530","REF_FRAME":"TEME","MEAN_MOTION_DOT":"0.00030815","RCS_SIZE":"LARGE","CENTER_NAME":"EARTH","GP_ID":"201254941","LAUNCH_DATE":"2020-08-18","SITE":"AFETR","TLE_LINE2":"2 46134  53.0530 192.5526 0001971  65.7151 294.4044 15.06418855 91885","ARG_OF_PERICENTER":"65.7151","FILE":"3401977","ELEMENT_SET_NO":"999","ECCENTRICITY":"0.00019710","EPHEMERIS_TYPE":"0","PERIOD":"95.591","TIME_SYSTEM":"UTC","PERIAPSIS":"545.791","DECAY_DATE":null,"TLE_LINE1":"1 46134U 20057T   22104.94105742  .00030815  00000-0  20775-2 0  9993","REV_AT_EPOCH":"9188","COUNTRY_CODE":"US","BSTAR":"0.00207750000000","OBJECT_TYPE":"PAYLOAD","EPOCH":"2022-04-14T22:35:07.361088","CLASSIFICATION_TYPE":"U","APOAPSIS":"548.521","MEAN_ELEMENT_THEORY":"SGP4","SEMIMAJOR_AXIS":"6925.291"},{"MEAN_MOTION_DOT":"0.00011304","REF_FRAME":"TEME","GP_ID":"201254184","CENTER_NAME":"EARTH","RCS_SIZE":"LARGE","LAUNCH_DATE":"2020-08-18","FILE":"3401977","ARG_OF_PERICENTER":"45.5743","TLE_LINE2":"2 46135  53.0538 193.9846 0001542  45.5743 314.5372 15.06426838 91834","SITE":"AFETR","OBJECT_NAME":"STARLINK-1639","RA_OF_ASC_NODE":"193.9846","MEAN_MOTION":"15.06426838","OBJECT_ID":"2020-057U","MEAN_ANOMALY":"314.5372","INCLINATION":"53.0538","NORAD_CAT_ID":"46135","MEAN_MOTION_DDOT":"0.0000000000000","EPOCH":"2022-04-14T14:58:38.932608","OBJECT_TYPE":"PAYLOAD","CLASSIFICATION_TYPE":"U","SEMIMAJOR_AXIS":"6925.266","MEAN_ELEMENT_THEORY":"SGP4","APOAPSIS":"548.199","ECCENTRICITY":"0.00015420","ELEMENT_SET_NO":"999","TIME_SYSTEM":"UTC","PERIOD":"95.590","EPHEMERIS_TYPE":"0","DECAY_DATE":null,"PERIAPSIS":"546.063","BSTAR":"0.00077601000000","COUNTRY_CODE":"US","REV_AT_EPOCH":"9183","TLE_LINE1":"1 46135U 20057U   22104.62406172  .00011304  00000-0  77601-3 0  9993"},{"OBJECT_ID":"2020-057V","OBJECT_NAME":"STARLINK-1643","RA_OF_ASC_NODE":"223.7624","MEAN_MOTION":"15.06417025","NORAD_CAT_ID":"46136","INCLINATION":"53.0537","MEAN_MOTION_DDOT":"0.0000000000000","MEAN_ANOMALY":"311.2264","GP_ID":"201254434","CENTER_NAME":"EARTH","RCS_SIZE":"LARGE","MEAN_MOTION_DOT":"0.00007004","REF_FRAME":"TEME","FILE":"3401977","SITE":"AFETR","TLE_LINE2":"2 46136  53.0537 223.7624 0001708  48.8873 311.2264 15.06417025 91421","ARG_OF_PERICENTER":"48.8873","LAUNCH_DATE":"2020-08-18","PERIOD":"95.591","TIME_SYSTEM":"UTC","EPHEMERIS_TYPE":"0","ELEMENT_SET_NO":"999","ECCENTRICITY":"0.00017080","TLE_LINE1":"1 46136U 20057V   22104.67290296  .00007004  00000-0  48838-3 0  9999","COUNTRY_CODE":"US","BSTAR":"0.00048838000000","REV_AT_EPOCH":"9142","DECAY_DATE":null,"PERIAPSIS":"545.979","OBJECT_TYPE":"PAYLOAD","EPOCH":"2022-04-14T16:08:58.815744","SEMIMAJOR_AXIS":"6925.296","APOAPSIS":"548.344","MEAN_ELEMENT_THEORY":"SGP4","CLASSIFICATION_TYPE":"U"},{"OBJECT_ID":"2020-057W","OBJECT_NAME":"STARLINK-1586","RA_OF_ASC_NODE":"213.6811","MEAN_MOTION":"15.06408417","MEAN_MOTION_DDOT":"0.0000000000000","NORAD_CAT_ID":"46137","INCLINATION":"53.0550","MEAN_ANOMALY":"321.4461","RCS_SIZE":"LARGE","GP_ID":"201254691","CENTER_NAME":"EARTH","REF_FRAME":"TEME","MEAN_MOTION_DOT":"0.00008951","SITE":"AFETR","ARG_OF_PERICENTER":"38.6676","TLE_LINE2":"2 46137  53.0550 213.6811 0002073  38.6676 321.4461 15.06408417 91569","FILE":"3401977","LAUNCH_DATE":"2020-08-18","EPHEMERIS_TYPE":"0","PERIOD":"95.592","TIME_SYSTEM":"UTC","ELEMENT_SET_NO":"999","ECCENTRICITY":"0.00020730","TLE_LINE1":"1 46137U 20057W   22104.69226444  .00008951  00000-0  61893-3 0  9994","COUNTRY_CODE":"US","REV_AT_EPOCH":"9156","BSTAR":"0.00061893000000","PERIAPSIS":"545.752","DECAY_DATE":null,"OBJECT_TYPE":"PAYLOAD","EPOCH":"2022-04-14T16:36:51.647616","APOAPSIS":"548.623","MEAN_ELEMENT_THEORY":"SGP4","SEMIMAJOR_AXIS":"6925.323","CLASSIFICATION_TYPE":"U"},{"ELEMENT_SET_NO":"999","ECCENTRICITY":"0.00019540","TIME_SYSTEM":"UTC","PERIOD":"95.591","EPHEMERIS_TYPE":"0","DECAY_DATE":null,"PERIAPSIS":"545.819","COUNTRY_CODE":"US","BSTAR":"0.00046083000000","REV_AT_EPOCH":"9127","TLE_LINE1":"1 46138U 20057X   22104.62406638  .00006592  00000-0  46083-3 0  9996","EPOCH":"2022-04-14T14:58:39.335232","OBJECT_TYPE":"PAYLOAD","CLASSIFICATION_TYPE":"U","SEMIMAJOR_AXIS":"6925.307","MEAN_ELEMENT_THEORY":"SGP4","APOAPSIS":"548.525","OBJECT_NAME":"STARLINK-1590","RA_OF_ASC_NODE":"233.9839","MEAN_MOTION":"15.06413602","OBJECT_ID":"2020-057X","MEAN_ANOMALY":"308.6807","INCLINATION":"53.0544","NORAD_CAT_ID":"46138","MEAN_MOTION_DDOT":"0.0000000000000","MEAN_MOTION_DOT":"0.00006592","REF_FRAME":"TEME","CENTER_NAME":"EARTH","GP_ID":"201222203","RCS_SIZE":"LARGE","LAUNCH_DATE":"2020-08-18","FILE":"3401567","ARG_OF_PERICENTER":"51.4357","TLE_LINE2":"2 46138  53.0544 233.9839 0001954  51.4357 308.6807 15.06413602 91275","SITE":"AFETR"},{"TLE_LINE2":"2 46140  53.0533 193.8635 0002009  43.6102 316.5046 15.06405528 92505","ARG_OF_PERICENTER":"43.6102","SITE":"AFETR","FILE":"3401591","LAUNCH_DATE":"2020-08-18","RCS_SIZE":"LARGE","GP_ID":"201227823","CENTER_NAME":"EARTH","REF_FRAME":"TEME","MEAN_MOTION_DOT":"0.00005080","MEAN_MOTION_DDOT":"0.0000000000000","INCLINATION":"53.0533","NORAD_CAT_ID":"46140","MEAN_ANOMALY":"316.5046","OBJECT_ID":"2020-057Z","MEAN_MOTION":"15.06405528","OBJECT_NAME":"STARLINK-1594","RA_OF_ASC_NODE":"193.8635","MEAN_ELEMENT_THEORY":"SGP4","APOAPSIS":"548.588","SEMIMAJOR_AXIS":"6925.332","CLASSIFICATION_TYPE":"U","EPOCH":"2022-04-14T15:35:49.262208","OBJECT_TYPE":"PAYLOAD","BSTAR":"0.00035967000000","COUNTRY_CODE":"US","REV_AT_EPOCH":"9250","TLE_LINE1":"1 46140U 20057Z   22104.64987572  .00005080  00000-0  35967-3 0  9992","PERIAPSIS":"545.805","DECAY_DATE":null,"EPHEMERIS_TYPE":"0","TIME_SYSTEM":"UTC","PERIOD":"95.592","ECCENTRICITY":"0.00020090","ELEMENT_SET_NO":"999"},{"OBJECT_TYPE":"PAYLOAD","EPOCH":"2022-04-14T15:03:58.133952","SEMIMAJOR_AXIS":"6925.289","MEAN_ELEMENT_THEORY":"SGP4","APOAPSIS":"548.230","CLASSIFICATION_TYPE":"U","PERIOD":"95.591","TIME_SYSTEM":"UTC","EPHEMERIS_TYPE":"0","ECCENTRICITY":"0.00015530","ELEMENT_SET_NO":"999","TLE_LINE1":"1 46141U 20057AA  22104.62775618  .00005829  00000-0  40968-3 0  9995","REV_AT_EPOCH":"9249","COUNTRY_CODE":"US","BSTAR":"0.00040968000000","DECAY_DATE":null,"PERIAPSIS":"546.079","CENTER_NAME":"EARTH","GP_ID":"201227637","RCS_SIZE":"LARGE","MEAN_MOTION_DOT":"0.00005829","REF_FRAME":"TEME","FILE":"3401588","SITE":"AFETR","TLE_LINE2":"2 46141  53.0529 193.9628 0001553  51.1994 308.9134 15.06419289 92490","ARG_OF_PERICENTER":"51.1994","LAUNCH_DATE":"2020-08-18","OBJECT_ID":"2020-057AA","OBJECT_NAME":"STARLINK-1596","MEAN_MOTION":"15.06419289","RA_OF_ASC_NODE":"193.9628","NORAD_CAT_ID":"46141","INCLINATION":"53.0529","MEAN_MOTION_DDOT":"0.0000000000000","MEAN_ANOMALY":"308.9134"},{"GP_ID":"201227851","CENTER_NAME":"EARTH","RCS_SIZE":"LARGE","MEAN_MOTION_DOT":"0.00003507","REF_FRAME":"TEME","FILE":"3401589","TLE_LINE2":"2 46142  53.0538 233.8907 0001620  59.4637 300.6512 15.06393537 91939","ARG_OF_PERICENTER":"59.4637","SITE":"AFETR","LAUNCH_DATE":"2020-08-18","OBJECT_ID":"2020-057AB","MEAN_MOTION":"15.06393537","RA_OF_ASC_NODE":"233.8907","OBJECT_NAME":"STARLINK-1597","INCLINATION":"53.0538","NORAD_CAT_ID":"46142","MEAN_MOTION_DDOT":"0.0000000000000","MEAN_ANOMALY":"300.6512","EPOCH":"2022-04-14T15:30:30.375360","OBJECT_TYPE":"PAYLOAD","SEMIMAJOR_AXIS":"6925.368","APOAPSIS":"548.355","MEAN_ELEMENT_THEORY":"SGP4","CLASSIFICATION_TYPE":"U","TIME_SYSTEM":"UTC","PERIOD":"95.593","EPHEMERIS_TYPE":"0","ELEMENT_SET_NO":"999","ECCENTRICITY":"0.00016200","COUNTRY_CODE":"US","REV_AT_EPOCH":"9193","BSTAR":"0.00025426000000","TLE_LINE1":"1 46142U 20057AB  22104.64618490  .00003507  00000-0  25426-3 0  9995","DECAY_DATE":null,"PERIAPSIS":"546.111"},{"CLASSIFICATION_TYPE":"U","SEMIMAJOR_AXIS":"6925.315","APOAPSIS":"548.449","MEAN_ELEMENT_THEORY":"SGP4","OBJECT_TYPE":"PAYLOAD","EPOCH":"2022-04-14T16:15:36.677376","DECAY_DATE":null,"PERIAPSIS":"545.910","TLE_LINE1":"1 46144U 20057AD  22104.67750784  .00001308  00000-0  10665-3 0  9999","REV_AT_EPOCH":"9223","COUNTRY_CODE":"US","BSTAR":"0.00010665000000","ECCENTRICITY":"0.00018330","ELEMENT_SET_NO":"999","PERIOD":"95.591","TIME_SYSTEM":"UTC","EPHEMERIS_TYPE":"0","LAUNCH_DATE":"2020-08-18","FILE":"3401594","SITE":"AFETR","ARG_OF_PERICENTER":"57.7820","TLE_LINE2":"2 46144  53.0546 213.7552 0001833  57.7820 302.3347 15.06411014 92234","MEAN_MOTION_DOT":"0.00001308","REF_FRAME":"TEME","GP_ID":"201227702","CENTER_NAME":"EARTH","RCS_SIZE":"LARGE","MEAN_ANOMALY":"302.3347","NORAD_CAT_ID":"46144","INCLINATION":"53.0546","MEAN_MOTION_DDOT":"0.0000000000000","RA_OF_ASC_NODE":"213.7552","OBJECT_NAME":"STARLINK-1606","MEAN_MOTION":"15.06411014","OBJECT_ID":"2020-057AD"},{"SEMIMAJOR_AXIS":"6925.402","APOAPSIS":"548.484","MEAN_ELEMENT_THEORY":"SGP4","CLASSIFICATION_TYPE":"U","OBJECT_TYPE":"PAYLOAD","EPOCH":"2022-04-14T15:46:25.069440","TLE_LINE1":"1 46146U 20057AF  22104.65723460  .00002377  00000-0  17850-3 0  9990","REV_AT_EPOCH":"9128","COUNTRY_CODE":"US","BSTAR":"0.00017850000000","DECAY_DATE":null,"PERIAPSIS":"546.049","PERIOD":"95.593","TIME_SYSTEM":"UTC","EPHEMERIS_TYPE":"0","ELEMENT_SET_NO":"999","ECCENTRICITY":"0.00017580","FILE":"3401977","SITE":"AFETR","TLE_LINE2":"2 46146  53.0539 233.8258 0001758  52.2579 307.8569 15.06382592 91289","ARG_OF_PERICENTER":"52.2579","LAUNCH_DATE":"2020-08-18","CENTER_NAME":"EARTH","GP_ID":"201254185","RCS_SIZE":"LARGE","MEAN_MOTION_DOT":"0.00002377","REF_FRAME":"TEME","NORAD_CAT_ID":"46146","INCLINATION":"53.0539","MEAN_MOTION_DDOT":"0.0000000000000","MEAN_ANOMALY":"307.8569","OBJECT_ID":"2020-057AF","OBJECT_NAME":"STARLINK-1608","RA_OF_ASC_NODE":"233.8258","MEAN_MOTION":"15.06382592"}];
